{"type": "FeatureCollection", "features": [ {"type": "Feature", "properties": {"norad_id": 34077, "name": "IRIDIUM 33 DEB", "group": "iridium-33-debris", "lat": 35.99344989203222, "lon": 54.487669501674006, "alt_km": 667.951664723616, "timestamp": "2025-12-11T22:43:47.654545+00:00", "meta": {"OBJECT_NAME": "IRIDIUM 33 DEB", "OBJECT_ID": "1997-051CL", "EPOCH": "2025-12-11T06:28:42.934368", "MEAN_MOTION": 14.64809818, "ECCENTRICITY": 0.00103779, "INCLINATION": 86.386, "RA_OF_ASC_NODE": 52.1546, "ARG_OF_PERICENTER": 44.2381, "MEAN_ANOMALY": 23.4753, "EPHEMERIS_TYPE": 0, "CLASSIFICATION_TYPE": "U", "NORAD_CAT_ID": 34077, "ELEMENT_SET_NO": 999, "REV_AT_EPOCH": 88311, "BSTAR": 0.0029385818, "MEAN_MOTION_DOT": 0.00015729, "MEAN_MOTION_DDOT": 0}, "tle": {"line1": "1 34077U 97051CL  25345.26994137  .00015729  00000+0  29386-2 0  9996", "line2": "2 34077  86.3860  52.1546 0010377  44.2381  23.4753 14.64809818883111"}}, "geometry": {"type": "Point", "coordinates": [54.487669501674006, 35.99344989203222]}}, {"type": "Feature", "properties": {"norad_id": 34079, "name": "IRIDIUM 33 DEB", "group": "iridium-33-debris", "lat": -25.40106456120641, "lon": 7.298766383057047, "alt_km": 620.7693684916776, "timestamp": "2025-12-11T22:43:47.654556+00:00", "meta": {"OBJECT_NAME": "IRIDIUM 33 DEB", "OBJECT_ID": "1997-051CN", "EPOCH": "2025-12-11T12:15:30.000096", "MEAN_MOTION": 14.83481168, "ECCENTRICITY": 0.00057783, "INCLINATION": 86.3779, "RA_OF_ASC_NODE": 9.2208, "ARG_OF_PERICENTER": 12.3601, "MEAN_ANOMALY": 153.7042, "EPHEMERIS_TYPE": 0, "CLASSIFICATION_TYPE": "U", "NORAD_CAT_ID": 34079, "ELEMENT_SET_NO": 999, "REV_AT_EPOCH": 88959, "BSTAR": 0.0032219276, "MEAN_MOTION_DOT": 0.00026584, "MEAN_MOTION_DDOT": 0}, "tle": {"line1": "1 34079U 97051CN  25345.51076389  .00026584  00000+0  32219-2 0  9996", "line2": "2 34079  86.3779   9.2208 0005778  12.3601 153.7042 14.83481168889591"}}, "geometry": {"type": "Point", "coordinates": [7.298766383057047, -25.40106456120641]}}, {"type": "Feature", "properties": {"norad_id": 34088, "name": "IRIDIUM 33 DEB", "group": "iridium-33-debris", "lat": 43.38164388950795, "lon": 34.513673265243085, "alt_km": 593.0859876946133, "timestamp": "2025-12-11T22:43:47.654566+00:00", "meta": {"OBJECT_NAME": "IRIDIUM 33 DEB", "OBJECT_ID": "1997-051CX", "EPOCH": "2025-12-11T15:11:32.508096", "MEAN_MOTION": 14.91300656, "ECCENTRICITY": 0.00055827, "INCLINATION": 86.3846, "RA_OF_ASC_NODE": 31.2323, "ARG_OF_PERICENTER": 180.2413, "MEAN_ANOMALY": 338.3736, "EPHEMERIS_TYPE": 0, "CLASSIFICATION_TYPE": "U", "NORAD_CAT_ID": 34088, "ELEMENT_SET_NO": 999, "REV_AT_EPOCH": 88725, "BSTAR": 0.0039129178, "MEAN_MOTION_DOT": 0.00039169, "MEAN_MOTION_DDOT": 0}, "tle": {"line1": "1 34088U 97051CX  25345.63301514  .00039169  00000+0  39129-2 0  9990", "line2": "2 34088  86.3846  31.2323 0005582 180.2413 338.3736 14.91300656887251"}}, "geometry": {"type": "Point", "coordinates": [34.513673265243085, 43.38164388950795]}}, {"type": "Feature", "properties": {"norad_id": 34091, "name": "IRIDIUM 33 DEB", "group": "iridium-33-debris", "lat": -75.72275349867738, "lon": -98.23727996911902, "alt_km": 613.2751688677135, "timestamp": "2025-12-11T22:43:47.654579+00:00", "meta": {"OBJECT_NAME": "IRIDIUM 33 DEB", "OBJECT_ID": "1997-051DA", "EPOCH": "2025-12-11T11:50:58.984800", "MEAN_MOTION": 14.81687233, "ECCENTRICITY": 0.00333541, "INCLINATION": 86.3408, "RA_OF_ASC_NODE": 67.4052, "ARG_OF_PERICENTER": 297.7713, "MEAN_ANOMALY": 62.0128, "EPHEMERIS_TYPE": 0, "CLASSIFICATION_TYPE": "U", "NORAD_CAT_ID": 34091, "ELEMENT_SET_NO": 999, "REV_AT_EPOCH": 87848, "BSTAR": 0.010203034, "MEAN_MOTION_DOT": 0.00081971, "MEAN_MOTION_DDOT": 0}, "tle": {"line1": "1 34091U 97051DA  25345.49373825  .00081971  00000+0  10203-1 0  9991", "line2": "2 34091  86.3408  67.4052 0033354 297.7713  62.0128 14.81687233878483"}}, "geometry": {"type": "Point", "coordinates": [-98.23727996911902, -75.72275349867738]}}, {"type": "Feature", "properties": {"norad_id": 34097, "name": "IRIDIUM 33 DEB", "group": "iridium-33-debris", "lat": -81.41011193017552, "lon": -24.341199770158365, "alt_km": 779.7570241081212, "timestamp": "2025-12-11T22:43:47.654590+00:00", "meta": {"OBJECT_NAME": "IRIDIUM 33 DEB", "OBJECT_ID": "1997-051DG", "EPOCH": "2025-12-11T11:23:32.776224", "MEAN_MOTION": 14.34761782, "ECCENTRICITY": 0.00827273, "INCLINATION": 86.2006, "RA_OF_ASC_NODE": 1.966, "ARG_OF_PERICENTER": 6.3255, "MEAN_ANOMALY": 353.8964, "EPHEMERIS_TYPE": 0, "CLASSIFICATION_TYPE": "U", "NORAD_CAT_ID": 34097, "ELEMENT_SET_NO": 999, "REV_AT_EPOCH": 87101, "BSTAR": 0.0024034747, "MEAN_MOTION_DOT": 7.099e-05, "MEAN_MOTION_DDOT": 0}, "tle": {"line1": "1 34097U 97051DG  25345.47468491  .00007099  00000+0  24035-2 0  9997", "line2": "2 34097  86.2006   1.9660 0082727   6.3255 353.8964 14.34761782871014"}}, "geometry": {"type": "Point", "coordinates": [-24.341199770158365, -81.41011193017552]}}, {"type": "Feature", "properties": {"norad_id": 34145, "name": "IRIDIUM 33 DEB", "group": "iridium-33-debris", "lat": 12.727970181428997, "lon": 152.02244384424532, "alt_km": 739.1477897768273, "timestamp": "2025-12-11T22:43:47.654600+00:00", "meta": {"OBJECT_NAME": "IRIDIUM 33 DEB", "OBJECT_ID": "1997-051DY", "EPOCH": "2025-12-10T04:20:07.855008", "MEAN_MOTION": 14.42258512, "ECCENTRICITY": 0.0055658, "INCLINATION": 86.2123, "RA_OF_ASC_NODE": 333.6661, "ARG_OF_PERICENTER": 101.9259, "MEAN_ANOMALY": 258.8189, "EPHEMERIS_TYPE": 0, "CLASSIFICATION_TYPE": "U", "NORAD_CAT_ID": 34145, "ELEMENT_SET_NO": 999, "REV_AT_EPOCH": 87601, "BSTAR": 0.0015884, "MEAN_MOTION_DOT": 5.356e-05, "MEAN_MOTION_DDOT": 0}, "tle": {"line1": "1 34145U 97051DY  25344.18064647  .00005356  00000+0  15884-2 0  9999", "line2": "2 34145  86.2123 333.6661 0055658 101.9259 258.8189 14.42258512876012"}}, "geometry": {"type": "Point", "coordinates": [152.02244384424532, 12.727970181428997]}}, {"type": "Feature", "properties": {"norad_id": 34146, "name": "IRIDIUM 33 DEB", "group": "iridium-33-debris", "lat": 35.17588511841493, "lon": 167.5254931765609, "alt_km": 723.291872962187, "timestamp": "2025-12-11T22:43:47.654611+00:00", "meta": {"OBJECT_NAME": "IRIDIUM 33 DEB", "OBJECT_ID": "1997-051DZ", "EPOCH": "2025-12-11T11:10:04.073952", "MEAN_MOTION": 14.49036122, "ECCENTRICITY": 0.00253898, "INCLINATION": 86.284, "RA_OF_ASC_NODE": 350.3635, "ARG_OF_PERICENTER": 226.1164, "MEAN_ANOMALY": 287.3329, "EPHEMERIS_TYPE": 0, "CLASSIFICATION_TYPE": "U", "NORAD_CAT_ID": 34146, "ELEMENT_SET_NO": 999, "REV_AT_EPOCH": 88088, "BSTAR": 0.0016681289, "MEAN_MOTION_DOT": 6.375e-05, "MEAN_MOTION_DDOT": 0}, "tle": {"line1": "1 34146U 97051DZ  25345.46532493  .00006375  00000+0  16681-2 0  9999", "line2": "2 34146  86.2840 350.3635 0025389 226.1164 287.3329 14.49036122880880"}}, "geometry": {"type": "Point", "coordinates": [167.5254931765609, 35.17588511841493]}}, {"type": "Feature", "properties": {"norad_id": 34159, "name": "IRIDIUM 33 DEB", "group": "iridium-33-debris", "lat": -69.37698404084959, "lon": -121.65753690802059, "alt_km": 756.8480115832235, "timestamp": "2025-12-11T22:43:47.654623+00:00", "meta": {"OBJECT_NAME": "IRIDIUM 33 DEB", "OBJECT_ID": "1997-051EN", "EPOCH": "2025-12-11T14:53:33.595008", "MEAN_MOTION": 14.38488957, "ECCENTRICITY": 0.0025992, "INCLINATION": 86.3509, "RA_OF_ASC_NODE": 48.7186, "ARG_OF_PERICENTER": 291.8319, "MEAN_ANOMALY": 68.0115, "EPHEMERIS_TYPE": 0, "CLASSIFICATION_TYPE": "U", "NORAD_CAT_ID": 34159, "ELEMENT_SET_NO": 999, "REV_AT_EPOCH": 87943, "BSTAR": 0.00059374897, "MEAN_MOTION_DOT": 1.839e-05, "MEAN_MOTION_DDOT": 0}, "tle": {"line1": "1 34159U 97051EN  25345.62052772  .00001839  00000+0  59375-3 0  9996", "line2": "2 34159  86.3509  48.7186 0025992 291.8319  68.0115 14.38488957879438"}}, "geometry": {"type": "Point", "coordinates": [-121.65753690802059, -69.37698404084959]}}, {"type": "Feature", "properties": {"norad_id": 34350, "name": "IRIDIUM 33 DEB", "group": "iridium-33-debris", "lat": -78.63147362727815, "lon": -158.22038450047629, "alt_km": 756.6626172177748, "timestamp": "2025-12-11T22:43:47.654634+00:00", "meta": {"OBJECT_NAME": "IRIDIUM 33 DEB", "OBJECT_ID": "1997-051ES", "EPOCH": "2025-12-11T12:10:25.711392", "MEAN_MOTION": 14.45383179, "ECCENTRICITY": 0.00227259, "INCLINATION": 86.3276, "RA_OF_ASC_NODE": 3.3421, "ARG_OF_PERICENTER": 139.0174, "MEAN_ANOMALY": 352.7891, "EPHEMERIS_TYPE": 0, "CLASSIFICATION_TYPE": "U", "NORAD_CAT_ID": 34350, "ELEMENT_SET_NO": 999, "REV_AT_EPOCH": 88275, "BSTAR": 0.00050102784, "MEAN_MOTION_DOT": 1.786e-05, "MEAN_MOTION_DDOT": 0}, "tle": {"line1": "1 34350U 97051ES  25345.50724203  .00001786  00000+0  50103-3 0  9992", "line2": "2 34350  86.3276   3.3421 0022725 139.0174 352.7891 14.45383179882755"}}, "geometry": {"type": "Point", "coordinates": [-158.22038450047629, -78.63147362727815]}}, {"type": "Feature", "properties": {"norad_id": 34366, "name": "IRIDIUM 33 DEB", "group": "iridium-33-debris", "lat": -22.520906344263725, "lon": -128.83360089829156, "alt_km": 710.1021359495217, "timestamp": "2025-12-11T22:43:47.654644+00:00", "meta": {"OBJECT_NAME": "IRIDIUM 33 DEB", "OBJECT_ID": "1997-051FJ", "EPOCH": "2025-12-11T05:33:55.951776", "MEAN_MOTION": 14.54036307, "ECCENTRICITY": 0.00222951, "INCLINATION": 86.3694, "RA_OF_ASC_NODE": 49.9688, "ARG_OF_PERICENTER": 144.5199, "MEAN_ANOMALY": 276.4662, "EPHEMERIS_TYPE": 0, "CLASSIFICATION_TYPE": "U", "NORAD_CAT_ID": 34366, "ELEMENT_SET_NO": 999, "REV_AT_EPOCH": 88160, "BSTAR": 0.0016787671, "MEAN_MOTION_DOT": 7.125e-05, "MEAN_MOTION_DDOT": 0}, "tle": {"line1": "1 34366U 97051FJ  25345.23189759  .00007125  00000+0  16788-2 0  9993", "line2": "2 34366  86.3694  49.9688 0022295 144.5199 276.4662 14.54036307881606"}}, "geometry": {"type": "Point", "coordinates": [-128.83360089829156, -22.520906344263725]}}]}